SL-14 R/B               
1 16496U 86006B   26110.58188697  .00000556  00000+0  56013-4 0  9992
2 16496  82.5288 220.3099 0077617 133.1074 227.6673 14.86884359155430
COSMOS 1743             
1 16719U 86034A   26110.83870648  .00042602  00000+0  48209-3 0  9998
2 16719  82.5320  29.4733 0007421 114.3604 245.8429 15.62210537186828
SL-14 R/B               
1 16792U 86046B   26110.83628463  .00000345  00000+0  36786-4 0  9994
2 16792  82.4840  40.3576 0024689  88.7463 271.6581 14.85630380132669
SL-14 R/B               
1 16882U 86055B   26110.89766433  .00000322  00000+0  34230-4 0  9997
2 16882  82.5180  86.9870 0018587 187.7006 233.3017 14.85678888125636
AJISAI (EGS)            
1 16908U 86061A   26110.97348897 -.00000091  00000+0  47584-4 0  9992
2 16908  50.0107 323.3281 0011413  35.5585 107.9500 12.44515853473264
SL-14 R/B               
1 17567U 87024B   26110.85436121  .00000357  00000+0  37696-4 0  9996
2 17567  82.5291  53.1280 0019629 118.6714 241.6479 14.86171375 94390
COSMOS 1833             
1 17589U 87027A   26110.62642179 -.00000256  00000+0 -11113-3 0  9995
2 17589  70.9162 237.8659 0022469 150.0006 210.2407 14.13035821 16249
SL-16 R/B               
1 17590U 87027B   26110.90174738  .00000110  00000+0  78390-4 0  9997
2 17590  71.0031 187.5429 0003375  36.5326 323.6027 14.17168877 21326
SL-14 R/B               
1 17912U 87038B   26110.87091792  .00000315  00000+0  33654-4 0  9992
2 17912  82.4995 257.0580 0019907  29.3304 330.9024 14.85406496 85497
COSMOS 1844             
1 17973U 87041A   26110.82877985 -.00000281  00000+0 -12015-3 0  9995
2 17973  70.8988 305.2949 0032668 315.9986  43.8536 14.14562899  9543
SL-14 R/B               
1 18153U 87055B   26110.84039086  .00000286  00000+0  30086-4 0  9997
2 18153  82.4971 309.3007 0019409 231.6866 128.2606 14.85665596 76191
COSMOS 1867             
1 18187U 87060A   26110.91699524 -.00000030  00000+0  26550-4 0  9996
2 18187  65.0107 188.4457 0015287 280.8463  79.0901 14.31509166 25983
SL-14 R/B               
1 18749U 88001B   26110.83864449  .00000271  00000+0  28394-4 0  9991
2 18749  82.5133 155.7274 0019616  98.5931 261.7508 14.85567528 48284
COSMOS 1933             
1 18958U 88020A   26110.64298215  .00002645  00000+0  12727-3 0  9994
2 18958  82.5155 209.3965 0005227  66.4029 293.7754 15.18356488 56597
SL-3 R/B                
1 19046U 88032B   26110.92658187  .00003896  00000+0  18058-3 0  9997
2 19046  97.5240  94.0581 0027679  87.0573 273.3829 15.20344367 58526
SL-16 R/B               
1 19120U 88039B   26110.90549701 -.00000065  00000+0 -78486-5 0  9996
2 19120  71.0157 339.2844 0024076 274.6148  85.2228 14.19622598964373
COSMOS 1953             
1 19210U 88050A   26110.38305184  .00005446  00000+0  19121-3 0  9991
2 19210  82.5046 116.2841 0010064 347.5919  12.5071 15.29138938 44151
