[{"OBJECT_NAME":"SL-14 R/B","OBJECT_ID":"1986-006B","EPOCH":"2026-04-20T13:57:55.034208","MEAN_MOTION":14.86884359,"ECCENTRICITY":0.00776178,"INCLINATION":82.5288,"RA_OF_ASC_NODE":220.3099,"ARG_OF_PERICENTER":133.1074,"MEAN_ANOMALY":227.6673,"EPHEMERIS_TYPE":0,"CLASSIFICATION_TYPE":"U","NORAD_CAT_ID":16496,"ELEMENT_SET_NO":999,"REV_AT_EPOCH":15543,"BSTAR":5.601309e-5,"MEAN_MOTION_DOT":5.56e-6,"MEAN_MOTION_DDOT":0},{"OBJECT_NAME":"COSMOS 1743","OBJECT_ID":"1986-034A","EPOCH":"2026-04-20T20:07:44.239872","MEAN_MOTION":15.62210537,"ECCENTRICITY":0.00074219,"INCLINATION":82.532,"RA_OF_ASC_NODE":29.4733,"ARG_OF_PERICENTER":114.3604,"MEAN_ANOMALY":245.8429,"EPHEMERIS_TYPE":0,"CLASSIFICATION_TYPE":"U","NORAD_CAT_ID":16719,"ELEMENT_SET_NO":999,"REV_AT_EPOCH":18682,"BSTAR":0.00048208993,"MEAN_MOTION_DOT":0.00042602,"MEAN_MOTION_DDOT":0},{"OBJECT_NAME":"SL-14 R/B","OBJECT_ID":"1986-046B","EPOCH":"2026-04-20T20:04:14.992032","MEAN_MOTION":14.8563038,"ECCENTRICITY":0.00246895,"INCLINATION":82.484,"RA_OF_ASC_NODE":40.3576,"ARG_OF_PERICENTER":88.7463,"MEAN_ANOMALY":271.6581,"EPHEMERIS_TYPE":0,"CLASSIFICATION_TYPE":"U","NORAD_CAT_ID":16792,"ELEMENT_SET_NO":999,"REV_AT_EPOCH":13266,"BSTAR":3.6785689e-5,"MEAN_MOTION_DOT":3.45e-6,"MEAN_MOTION_DDOT":0},{"OBJECT_NAME":"SL-14 R/B","OBJECT_ID":"1986-055B","EPOCH":"2026-04-20T21:32:38.198112","MEAN_MOTION":14.85678888,"ECCENTRICITY":0.00185879,"INCLINATION":82.518,"RA_OF_ASC_NODE":86.987,"ARG_OF_PERICENTER":187.7006,"MEAN_ANOMALY":233.3017,"EPHEMERIS_TYPE":0,"CLASSIFICATION_TYPE":"U","NORAD_CAT_ID":16882,"ELEMENT_SET_NO":999,"REV_AT_EPOCH":12563,"BSTAR":3.4229797e-5,"MEAN_MOTION_DOT":3.22e-6,"MEAN_MOTION_DDOT":0},{"OBJECT_NAME":"AJISAI (EGS)","OBJECT_ID":"1986-061A","EPOCH":"2026-04-20T23:21:49.447008","MEAN_MOTION":12.44515853,"ECCENTRICITY":0.00114138,"INCLINATION":50.0107,"RA_OF_ASC_NODE":323.3281,"ARG_OF_PERICENTER":35.5585,"MEAN_ANOMALY":107.95,"EPHEMERIS_TYPE":0,"CLASSIFICATION_TYPE":"U","NORAD_CAT_ID":16908,"ELEMENT_SET_NO":999,"REV_AT_EPOCH":47326,"BSTAR":4.7583928e-5,"MEAN_MOTION_DOT":-9.1e-7,"MEAN_MOTION_DDOT":0},{"OBJECT_NAME":"SL-14 R/B","OBJECT_ID":"1987-024B","EPOCH":"2026-04-20T20:30:16.808544","MEAN_MOTION":14.86171375,"ECCENTRICITY":0.00196294,"INCLINATION":82.5291,"RA_OF_ASC_NODE":53.128,"ARG_OF_PERICENTER":118.6714,"MEAN_ANOMALY":241.6479,"EPHEMERIS_TYPE":0,"CLASSIFICATION_TYPE":"U","NORAD_CAT_ID":17567,"ELEMENT_SET_NO":999,"REV_AT_EPOCH":9439,"BSTAR":3.769573e-5,"MEAN_MOTION_DOT":3.57e-6,"MEAN_MOTION_DDOT":0},{"OBJECT_NAME":"COSMOS 1833","OBJECT_ID":"1987-027A","EPOCH":"2026-04-20T15:02:02.842656","MEAN_MOTION":14.13035821,"ECCENTRICITY":0.00224697,"INCLINATION":70.9162,"RA_OF_ASC_NODE":237.8659,"ARG_OF_PERICENTER":150.0006,"MEAN_ANOMALY":210.2407,"EPHEMERIS_TYPE":0,"CLASSIFICATION_TYPE":"U","NORAD_CAT_ID":17589,"ELEMENT_SET_NO":999,"REV_AT_EPOCH":1624,"BSTAR":-0.00011112746,"MEAN_MOTION_DOT":-2.56e-6,"MEAN_MOTION_DDOT":0},{"OBJECT_NAME":"SL-16 R/B","OBJECT_ID":"1987-027B","EPOCH":"2026-04-20T21:38:30.973632","MEAN_MOTION":14.17168877,"ECCENTRICITY":0.00033758,"INCLINATION":71.0031,"RA_OF_ASC_NODE":187.5429,"ARG_OF_PERICENTER":36.5326,"MEAN_ANOMALY":323.6027,"EPHEMERIS_TYPE":0,"CLASSIFICATION_TYPE":"U","NORAD_CAT_ID":17590,"ELEMENT_SET_NO":999,"REV_AT_EPOCH":2132,"BSTAR":7.8389974e-5,"MEAN_MOTION_DOT":1.1e-6,"MEAN_MOTION_DDOT":0},{"OBJECT_NAME":"SL-14 R/B","OBJECT_ID":"1987-038B","EPOCH":"2026-04-20T20:54:07.308288","MEAN_MOTION":14.85406496,"ECCENTRICITY":0.00199071,"INCLINATION":82.4995,"RA_OF_ASC_NODE":257.058,"ARG_OF_PERICENTER":29.3304,"MEAN_ANOMALY":330.9024,"EPHEMERIS_TYPE":0,"CLASSIFICATION_TYPE":"U","NORAD_CAT_ID":17912,"ELEMENT_SET_NO":999,"REV_AT_EPOCH":8549,"BSTAR":3.365392e-5,"MEAN_MOTION_DOT":3.15e-6,"MEAN_MOTION_DDOT":0},{"OBJECT_NAME":"COSMOS 1844","OBJECT_ID":"1987-041A","EPOCH":"2026-04-20T19:53:26.579040","MEAN_MOTION":14.14562899,"ECCENTRICITY":0.00326681,"INCLINATION":70.8988,"RA_OF_ASC_NODE":305.2949,"ARG_OF_PERICENTER":315.9986,"MEAN_ANOMALY":43.8536,"EPHEMERIS_TYPE":0,"CLASSIFICATION_TYPE":"U","NORAD_CAT_ID":17973,"ELEMENT_SET_NO":999,"REV_AT_EPOCH":954,"BSTAR":-0.0001201455,"MEAN_MOTION_DOT":-2.81e-6,"MEAN_MOTION_DDOT":0},{"OBJECT_NAME":"SL-14 R/B","OBJECT_ID":"1987-055B","EPOCH":"2026-04-20T20:10:09.770304","MEAN_MOTION":14.85665596,"ECCENTRICITY":0.00194099,"INCLINATION":82.4971,"RA_OF_ASC_NODE":309.3007,"ARG_OF_PERICENTER":231.6866,"MEAN_ANOMALY":128.2606,"EPHEMERIS_TYPE":0,"CLASSIFICATION_TYPE":"U","NORAD_CAT_ID":18153,"ELEMENT_SET_NO":999,"REV_AT_EPOCH":7619,"BSTAR":3.0085952e-5,"MEAN_MOTION_DOT":2.86e-6,"MEAN_MOTION_DDOT":0},{"OBJECT_NAME":"COSMOS 1867","OBJECT_ID":"1987-060A","EPOCH":"2026-04-20T22:00:28.388736","MEAN_MOTION":14.31509166,"ECCENTRICITY":0.0015287,"INCLINATION":65.0107,"RA_OF_ASC_NODE":188.4457,"ARG_OF_PERICENTER":280.8463,"MEAN_ANOMALY":79.0901,"EPHEMERIS_TYPE":0,"CLASSIFICATION_TYPE":"U","NORAD_CAT_ID":18187,"ELEMENT_SET_NO":999,"REV_AT_EPOCH":2598,"BSTAR":2.6549978e-5,"MEAN_MOTION_DOT":-3.0e-7,"MEAN_MOTION_DDOT":0},{"OBJECT_NAME":"SL-14 R/B","OBJECT_ID":"1988-001B","EPOCH":"2026-04-20T20:07:38.883936","MEAN_MOTION":14.85567528,"ECCENTRICITY":0.00196165,"INCLINATION":82.5133,"RA_OF_ASC_NODE":155.7274,"ARG_OF_PERICENTER":98.5931,"MEAN_ANOMALY":261.7508,"EPHEMERIS_TYPE":0,"CLASSIFICATION_TYPE":"U","NORAD_CAT_ID":18749,"ELEMENT_SET_NO":999,"REV_AT_EPOCH":4828,"BSTAR":2.839441e-5,"MEAN_MOTION_DOT":2.71e-6,"MEAN_MOTION_DDOT":0},{"OBJECT_NAME":"COSMOS 1933","OBJECT_ID":"1988-020A","EPOCH":"2026-04-20T15:25:53.657760","MEAN_MOTION":15.18356488,"ECCENTRICITY":0.00052275,"INCLINATION":82.5155,"RA_OF_ASC_NODE":209.3965,"ARG_OF_PERICENTER":66.4029,"MEAN_ANOMALY":293.7754,"EPHEMERIS_TYPE":0,"CLASSIFICATION_TYPE":"U","NORAD_CAT_ID":18958,"ELEMENT_SET_NO":999,"REV_AT_EPOCH":5659,"BSTAR":0.00012727171,"MEAN_MOTION_DOT":2.645e-5,"MEAN_MOTION_DDOT":0},{"OBJECT_NAME":"SL-3 R/B","OBJECT_ID":"1988-032B","EPOCH":"2026-04-20T22:14:16.673568","MEAN_MOTION":15.20344367,"ECCENTRICITY":0.00276796,"INCLINATION":97.524,"RA_OF_ASC_NODE":94.0581,"ARG_OF_PERICENTER":87.0573,"MEAN_ANOMALY":273.3829,"EPHEMERIS_TYPE":0,"CLASSIFICATION_TYPE":"U","NORAD_CAT_ID":19046,"ELEMENT_SET_NO":999,"REV_AT_EPOCH":5852,"BSTAR":0.00018057503,"MEAN_MOTION_DOT":3.896e-5,"MEAN_MOTION_DDOT":0},{"OBJECT_NAME":"SL-16 R/B","OBJECT_ID":"1988-039B","EPOCH":"2026-04-20T21:43:54.941664","MEAN_MOTION":14.19622598,"ECCENTRICITY":0.00240769,"INCLINATION":71.0157,"RA_OF_ASC_NODE":339.2844,"ARG_OF_PERICENTER":274.6148,"MEAN_ANOMALY":85.2228,"EPHEMERIS_TYPE":0,"CLASSIFICATION_TYPE":"U","NORAD_CAT_ID":19120,"ELEMENT_SET_NO":999,"REV_AT_EPOCH":96437,"BSTAR":-7.848572e-6,"MEAN_MOTION_DOT":-6.5e-7,"MEAN_MOTION_DDOT":0},{"OBJECT_NAME":"COSMOS 1953","OBJECT_ID":"1988-050A","EPOCH":"2026-04-20T09:11:35.678976","MEAN_MOTION":15.29138938,"ECCENTRICITY":0.00100645,"INCLINATION":82.5046,"RA_OF_ASC_NODE":116.2841,"ARG_OF_PERICENTER":347.5919,"MEAN_ANOMALY":12.5071,"EPHEMERIS_TYPE":0,"CLASSIFICATION_TYPE":"U","NORAD_CAT_ID":19210,"ELEMENT_SET_NO":999,"REV_AT_EPOCH":4415,"BSTAR":0.00019120961,"MEAN_MOTION_DOT":5.446e-5,"MEAN_MOTION_DDOT":0}]
